[{"OBJECT_NAME":"YAOGAN-43 01G","OBJECT_ID":"2024-148G","EPOCH":"2026-03-09T10:38:37.087584","MEAN_MOTION":15.28332833,"ECCENTRICITY":0.00073829,"INCLINATION":35.0006,"RA_OF_ASC_NODE":62.0013,"ARG_OF_PERICENTER":306.3543,"MEAN_ANOMALY":53.6492,"EPHEMERIS_TYPE":0,"CLASSIFICATION_TYPE":"U","NORAD_CAT_ID":60464,"ELEMENT_SET_NO":999,"REV_AT_EPOCH":8700,"BSTAR":0.00035872736,"MEAN_MOTION_DOT":0.00010133,"MEAN_MOTION_DDOT":0},{"OBJECT_NAME":"STARLINK-32397","OBJECT_ID":"2024-187V","EPOCH":"2026-03-09T09:07:54.107904","MEAN_MOTION":15.3018745,"ECCENTRICITY":0.00013042,"INCLINATION":53.1607,"RA_OF_ASC_NODE":64.5183,"ARG_OF_PERICENTER":93.2929,"MEAN_ANOMALY":266.8221,"EPHEMERIS_TYPE":0,"CLASSIFICATION_TYPE":"U","NORAD_CAT_ID":61593,"ELEMENT_SET_NO":999,"REV_AT_EPOCH":7906,"BSTAR":-6.64363e-7,"MEAN_MOTION_DOT":-3.79e-6,"MEAN_MOTION_DDOT":0}]
